EYESAT A (AO-27)        
1 22825U 93061C   26154.15492844  .00000132  00000+0  67000-4 0  9995
2 22825  98.6883 221.5730 0009211 136.3443 223.8470 14.30938275704997
ITAMSAT (IO-26)         
1 22826U 93061D   26154.62784732  .00000117  00000+0  60848-4 0  9994
2 22826  98.6830 221.9619 0009964 120.4008 239.8161 14.31364841705376
RADIO ROSTO (RS15)      
1 23439U 94085A   26154.90130773 -.00000059  00000+0 -45534-3 0  9994
2 23439  64.8185 324.7036 0155535   6.3318 353.9525 11.27583593294400
JAS-2 (FO-29)           
1 24278U 96046B   26154.55915222 -.00000028  00000+0  49295-5 0  9991
2 24278  98.5251   5.2975 0350636 131.7079 231.4625 13.53273610471325
FORTE                   
1 24920U 97047A   26153.80475285  .00000181  00000+0  95941-4 0  9991
2 24920  69.9543  46.5074 0024371 294.7895  65.0691 14.27939081496631
TECHSAT 1B (GO-32)      
1 25397U 98043D   26154.57772251  .00000069  00000+0  49972-4 0  9993
2 25397  99.0064 146.9934 0000319 213.6137 146.5021 14.24425649449397
ISS (ZARYA)             
1 25544U 98067A   26154.70949191  .00008646  00000+0  16154-3 0  9991
2 25544  51.6330   6.8180 0007089 128.9940 231.1681 15.49585865569660
IMAGE                   
1 26113U 00017A   26152.26636047 -.00000099  00000+0 -18882-1 0  9998
2 26113  94.2162 315.1599 7443736 289.6105   8.6041  1.68666062161230
CLUSTER II-FM7 (SAMBA)  
1 26410U 00041A   26156.98399886  .00004453  00000+0  00000+0 0  9992
2 26410 149.8917  48.5803 9040965 265.6480   0.0292  0.44829937 20254
CLUSTER II-FM8 (TANGO)  
1 26464U 00045B   26150.42970564  .00004404  00000+0  00000+0 0  9992
2 26464 150.1271  48.5941 9036059 265.4393   3.5087  0.44418197 20234
ODIN                    
1 26702U 01007A   26154.61304034  .00157367  00000+0  12152-2 0  9995
2 26702  97.3861 194.7266 0005940 161.5590 198.5889 15.71427436387267
OMNI-M1                 
1 26857U 01026A   26152.43086132 -.00000010  00000+0  00000+0 0  9990
2 26857  44.8352 248.8960 0014672  50.7644 309.4132  3.92401639204958
PCSAT (NO-44)           
1 26931U 01043C   26154.60928777  .00000163  00000+0  91734-4 0  9990
2 26931  67.0512 279.3895 0006115 263.9670  96.0735 14.31950876288500
PROBA-1                 
1 26958U 01049B   26154.92741727  .00001052  00000+0  71664-4 0  9996
2 26958  97.9597 162.9974 0055398 165.9939 194.2840 15.07435237341629
SAUDISAT 1C (SO-50)     
1 27607U 02058C   26154.26409835  .00001126  00000+0  14986-3 0  9992
2 27607  64.5505 172.0623 0075519 265.0164  94.2317 14.83015002262393
CORIOLIS                
1 27640U 03001A   26154.59741162  .00000101  00000+0  68250-4 0  9992
2 27640  98.7126 161.6896 0012856 250.5610 109.4178 14.19940938212296
CUTE-1 (CO-55)          
1 27844U 03031E   26154.54951729  .00000336  00000+0  16425-3 0  9994
2 27844  98.6736 163.2800 0008690 219.4250 140.6297 14.24327019189732
CUBESAT XI-IV (CO-57)   
1 27848U 03031J   26152.00092913  .00000288  00000+0  14576-3 0  9999
2 27848  98.6768 160.4891 0008288 248.3946 111.6350 14.23611465189071
MOZHAETS 4 (RS22)       
1 27939U 03042A   26154.97795970  .00001575  00000+0  25094-3 0  9990
2 27939  98.3464 338.9639 0010382 316.3760 146.9985 14.73445047213600
